{
"type": "FeatureCollection",
"name": "juja_constituency",
"crs": { "type": "name", "properties": { "name": "urn:ogc:def:crs:OGC:1.3:CRS84" } },
"features": [
{ "type": "Feature", "properties": { "GID_3": "KEN.13.4.1_1", "GID_0": "KEN", "COUNTRY": "Kenya", "GID_1": "KEN.13_1", "NAME_1": "Kiambu", "NL_NAME_1": "NA", "GID_2": "KEN.13.4_1", "NAME_2": "Juja", "NL_NAME_2": "NA", "NAME_3": "Juja", "VARNAME_3": "NA", "NL_NAME_3": "NA", "TYPE_3": "Ward", "ENGTYPE_3": "Ward", "CC_3": "561", "HASC_3": "NA" }, "geometry": { "type": "MultiPolygon", "coordinates": [ [ [ [ 36.943439484000123, -1.058453559999975 ], [ 36.94696045000012, -1.053270339999926 ], [ 36.950542450000057, -1.04755806999998 ], [ 36.951553345000093, -1.045903324999927 ], [ 36.954082489000143, -1.042379496999956 ], [ 36.954196928999977, -1.04222071199996 ], [ 36.955619813000112, -1.04023849899994 ], [ 36.955299378000177, -1.040011285999981 ], [ 36.955059052000024, -1.03983747999996 ], [ 36.954818725000109, -1.039663791999885 ], [ 36.95429611100019, -1.039276241999971 ], [ 36.953922271000181, -1.038795113999868 ], [ 36.95389556900011, -1.038340687999948 ], [ 36.953804016000106, -1.038113474999875 ], [ 36.953601836000075, -1.037538884999947 ], [ 36.953521729000101, -1.037178038999912 ], [ 36.953414917000146, -1.036883949999947 ], [ 36.953216553000061, -1.036696910999979 ], [ 36.952800751000098, -1.036389468999971 ], [ 36.952400207000039, -1.036215780999896 ], [ 36.952186585000106, -1.036042094999914 ], [ 36.951999664000027, -1.035761356999956 ], [ 36.951866150000171, -1.035560964999888 ], [ 36.95169067400019, -1.03545403499993 ], [ 36.951263429000107, -1.03526687599998 ], [ 36.95080947800011, -1.035200117999977 ], [ 36.950435638000101, -1.035079836999955 ], [ 36.950195312000119, -1.034959553999954 ], [ 36.949607849000074, -1.034732340999881 ], [ 36.949394226000095, -1.034799216999943 ], [ 36.94927215600012, -1.034879325999896 ], [ 36.948978424000131, -1.034946203999937 ], [ 36.948776245000033, -1.034946203999937 ], [ 36.948444367000093, -1.034932850999951 ], [ 36.948028565000129, -1.034946203999937 ], [ 36.947895051000103, -1.034999608999897 ], [ 36.947669983000139, -1.035146592999979 ], [ 36.947467804000041, -1.035307049999915 ], [ 36.947280885000112, -1.035520790999954 ], [ 36.947067260000097, -1.03570794999996 ], [ 36.946865083000148, -1.035694598999953 ], [ 36.945049285000039, -1.03570794999996 ], [ 36.944686890000128, -1.035574315999952 ], [ 36.944553375, -1.03546738599988 ], [ 36.944274902000188, -1.035360455999978 ], [ 36.943859100000054, -1.035307049999915 ], [ 36.943607330000191, -1.035307049999915 ], [ 36.943473816000164, -1.035360455999978 ], [ 36.943164825000053, -1.035587668999881 ], [ 36.942901612000071, -1.035777092999922 ], [ 36.942829131000167, -1.035828232999961 ], [ 36.942588807, -1.036001920999979 ], [ 36.942348481000181, -1.036135553999827 ], [ 36.942108155000028, -1.036135553999827 ], [ 36.941654206000067, -1.036122201999945 ], [ 36.941226959000119, -1.036122201999945 ], [ 36.941093445000092, -1.036255834999906 ], [ 36.940773010000157, -1.036469697999962 ], [ 36.940525055000137, -1.036455273999877 ], [ 36.940330506000123, -1.03644299399997 ], [ 36.939956664000078, -1.036255834999906 ], [ 36.939704895000148, -1.036095499999874 ], [ 36.939476014000093, -1.03593516299992 ], [ 36.939331055000139, -1.035868286999914 ], [ 36.939205169000161, -1.035705803999974 ], [ 36.944461823000097, -1.0274888269999 ], [ 36.945823669000163, -1.025524257999962 ], [ 36.946937561000141, -1.023660659999962 ], [ 36.94695281900016, -1.023636818999876 ], [ 36.948207856000124, -1.02153682799991 ], [ 36.948444367000093, -1.021182655999951 ], [ 36.948490144000061, -1.021440385999938 ], [ 36.948631286000193, -1.021719455999857 ], [ 36.948879242000089, -1.021967530999973 ], [ 36.949203492000095, -1.022107124999934 ], [ 36.949623107000093, -1.022246598999971 ], [ 36.94996261600005, -1.02223110299991 ], [ 36.950069428000177, -1.022218464999924 ], [ 36.950225830000136, -1.022200106999946 ], [ 36.950412751000044, -1.022122620999824 ], [ 36.950584412000126, -1.021998524999958 ], [ 36.95078659100011, -1.021874545999879 ], [ 36.95098495600007, -1.021828053999968 ], [ 36.951019287000179, -1.021833299999969 ], [ 36.951374054000098, -1.021890043999917 ], [ 36.951793671000075, -1.022122620999824 ], [ 36.952072144000113, -1.022153616999901 ], [ 36.952857971000071, -1.022403478999877 ], [ 36.953098297000054, -1.022581933999902 ], [ 36.953617096000073, -1.022983430999886 ], [ 36.953987121000068, -1.023265956999921 ], [ 36.95436096200018, -1.023637651999934 ], [ 36.954448700000114, -1.023786425999901 ], [ 36.954730987000119, -1.024113535999959 ], [ 36.95520782400007, -1.024381160999894 ], [ 36.955684661000191, -1.024574517999895 ], [ 36.95620346000004, -1.024574517999895 ], [ 36.956459045000088, -1.024544715999923 ], [ 36.956932066999968, -1.02463400299996 ], [ 36.957214355000076, -1.024842142999944 ], [ 36.95740890400009, -1.02518415399993 ], [ 36.957618714000034, -1.025422094999954 ], [ 36.958003997000048, -1.025570868999921 ], [ 36.958255769000118, -1.025645135999866 ], [ 36.958717346000185, -1.025734424999882 ], [ 36.959060669000053, -1.025749324999936 ], [ 36.95934295700016, -1.025615453999876 ], [ 36.95967102000003, -1.025555968999925 ], [ 36.95989227300015, -1.025466679999909 ], [ 36.960144043000184, -1.025362609999945 ], [ 36.960399627000186, -1.025258539999925 ], [ 36.960857391000047, -1.025347708999959 ], [ 36.961139679000155, -1.025496482999927 ], [ 36.961425780000127, -1.025630354999976 ], [ 36.961692810000159, -1.025719523999953 ], [ 36.961929321000127, -1.025868177999939 ], [ 36.962406158000022, -1.025957464999863 ], [ 36.9627189630001, -1.026076435999926 ], [ 36.96307373000019, -1.02628457499992 ], [ 36.963356018000127, -1.026358961999961 ], [ 36.963668823000148, -1.026314376999892 ], [ 36.96398162800017, -1.026269791999937 ], [ 36.964366913000163, -1.026314376999892 ], [ 36.964740753, -1.026552319999951 ], [ 36.96497726400014, -1.02677536099992 ], [ 36.965274810000096, -1.027057886999955 ], [ 36.965484620000041, -1.027310608999926 ], [ 36.965808868000011, -1.027414797999825 ], [ 36.966255189000094, -1.027489066999919 ], [ 36.966762543000129, -1.027637838999965 ], [ 36.967254638000099, -1.027756809999971 ], [ 36.967876435000107, -1.027831077999963 ], [ 36.96811676100009, -1.027831077999963 ], [ 36.968429566000168, -1.027860878999945 ], [ 36.96899414000012, -1.027860878999945 ], [ 36.969276428000057, -1.027860878999945 ], [ 36.96973800700016, -1.027875779999931 ], [ 36.97002029500004, -1.027920364999886 ], [ 36.970466614000145, -1.028083919999858 ], [ 36.970821380000189, -1.028217792999897 ], [ 36.97108841000005, -1.028396248999854 ], [ 36.971313476000034, -1.02858948599993 ], [ 36.971477509000181, -1.028782844999967 ], [ 36.971683503000179, -1.028976201999967 ], [ 36.97196578900008, -1.029139756999882 ], [ 36.972396851000042, -1.029258726999956 ], [ 36.972637176000148, -1.029332995999823 ], [ 36.972919464000029, -1.029392480999945 ], [ 36.973083496000129, -1.029600738999932 ], [ 36.973247529000105, -1.030225276999943 ], [ 36.973274230000072, -1.031072854999877 ], [ 36.973438263000048, -1.031474350999872 ], [ 36.973617554000043, -1.031801580999968 ], [ 36.97375106800007, -1.032158374999824 ], [ 36.973766326000089, -1.033095239999966 ], [ 36.973854065000182, -1.033645390999936 ], [ 36.973884582000153, -1.034076690999939 ], [ 36.97397613600009, -1.034626840999977 ], [ 36.974109649000184, -1.034894585999893 ], [ 36.974582672000167, -1.03523659699988 ], [ 36.97482299800015, -1.035385251999912 ], [ 36.975120544000049, -1.035638093999978 ], [ 36.975238800000113, -1.036173463999944 ], [ 36.97526931800013, -1.036485670999923 ], [ 36.975387574000138, -1.036842584999874 ], [ 36.975536346000183, -1.037184595999918 ], [ 36.975715637000178, -1.037303566999924 ], [ 36.976161956000112, -1.037511705999918 ], [ 36.976444244000163, -1.037853717999951 ], [ 36.9767265320001, -1.038285017999954 ], [ 36.976993562000132, -1.038686513999949 ], [ 36.97724533100012, -1.039117811999915 ], [ 36.977497101000154, -1.039474605999942 ], [ 36.977901459000066, -1.0399504909999 ], [ 36.978137971000081, -1.040114045999928 ], [ 36.978363036000133, -1.040307402999929 ], [ 36.978538514000093, -1.040545343999895 ], [ 36.978881836000085, -1.040783284999975 ], [ 36.979194640000173, -1.040976523999973 ], [ 36.979579926000099, -1.041184782999892 ], [ 36.979923249000194, -1.041392922999876 ], [ 36.980323791000103, -1.041853904999925 ], [ 36.98057556200007, -1.042076944999906 ], [ 36.980785369999978, -1.042404175999877 ], [ 36.980949402000078, -1.042627215999971 ], [ 36.981246949000081, -1.042969226999901 ], [ 36.981586457000105, -1.043281436999905 ], [ 36.981842042000039, -1.043489693999902 ], [ 36.982154846000185, -1.043727634999868 ], [ 36.98231506400009, -1.04392087399998 ], [ 36.982601165000062, -1.044203399999901 ], [ 36.982986450000055, -1.044485925999936 ], [ 36.983119964000082, -1.044709085999898 ], [ 36.983314513000096, -1.045006394999973 ], [ 36.983669280000072, -1.045378207999931 ], [ 36.98406982400013, -1.045735119999961 ], [ 36.984622955000191, -1.04598784399991 ], [ 36.984992982000165, -1.046166299999925 ], [ 36.985454559000061, -1.046300172999906 ], [ 36.985946654000031, -1.04644882599996 ], [ 36.986255646000188, -1.04674625399997 ], [ 36.986583709000058, -1.047013996999908 ], [ 36.986732483000083, -1.047162650999951 ], [ 36.987224579000156, -1.047534465999888 ], [ 36.987686158000031, -1.047846675999892 ], [ 36.988025666000055, -1.048307656999953 ], [ 36.988399506000121, -1.048456429999874 ], [ 36.988563537000061, -1.048709153999937 ], [ 36.988861083000188, -1.049259423999899 ], [ 36.989036559000169, -1.049705504999963 ], [ 36.989173890000075, -1.050166486999899 ], [ 36.989276885000152, -1.050582885999972 ], [ 36.989395141000159, -1.051058648999913 ], [ 36.989482880000025, -1.05120742299988 ], [ 36.989856720000034, -1.051519632999941 ], [ 36.990287780000187, -1.051787375999879 ], [ 36.99067306500018, -1.052129386999866 ], [ 36.991046906000122, -1.052352426999846 ], [ 36.991565705000141, -1.052634954999974 ], [ 36.992012023000143, -1.053051351999954 ], [ 36.992412567000031, -1.053378462999831 ], [ 36.99271011400009, -1.053884028999903 ], [ 36.992889404000152, -1.054285524999898 ], [ 36.99303817700013, -1.054820894999978 ], [ 36.993156432000035, -1.055385946999934 ], [ 36.993274690000078, -1.055683372999852 ], [ 36.993602753000118, -1.056174158999966 ], [ 36.993843079000101, -1.056486367999923 ], [ 36.994243623000045, -1.057006834999925 ], [ 36.994495391999976, -1.057229875999894 ], [ 36.994823455000073, -1.057348845999968 ], [ 36.995193482000047, -1.057363748999876 ], [ 36.99549102900005, -1.057438134999927 ], [ 36.995922088999976, -1.057497620999925 ], [ 36.996414185000049, -1.057527303999905 ], [ 36.996757508000087, -1.057765245999974 ], [ 36.997230529999968, -1.058241127999906 ], [ 36.997661591000053, -1.058389781999949 ], [ 36.998168945000089, -1.058508752999956 ], [ 36.998718262000182, -1.058627723999905 ], [ 36.999267578000115, -1.058806181999955 ], [ 36.999706269000114, -1.058876514999895 ], [ 37.000087739000037, -1.058876514999895 ], [ 37.00057602000004, -1.059110283999871 ], [ 37.000942229000032, -1.059266090999813 ], [ 37.001377105000131, -1.059533237999972 ], [ 37.002002716000163, -1.059967398999902 ], [ 37.002414703000056, -1.060189961999868 ], [ 37.002758027000027, -1.060334680999915 ], [ 37.003036500000064, -1.060334680999915 ], [ 37.003402710000159, -1.060212254999954 ], [ 37.003749848000098, -1.060023068999897 ], [ 37.00409317000009, -1.059878349999906 ], [ 37.004482270000153, -1.059822678999922 ], [ 37.004882812000062, -1.059856055999944 ], [ 37.00508499100016, -1.059922813999947 ], [ 37.005485535000105, -1.060256837999873 ], [ 37.005851747000179, -1.06065750099998 ], [ 37.006164551000154, -1.061113834999901 ], [ 37.006420136000088, -1.061937570999874 ], [ 37.006652832000157, -1.062360525999964 ], [ 37.006931305000194, -1.06259429399995 ], [ 37.00756836000005, -1.06313979499987 ], [ 37.007900238000161, -1.06341802999998 ], [ 37.00841140700004, -1.063685177999957 ], [ 37.008903503000113, -1.063807605999955 ], [ 37.009769440000071, -1.063930033999952 ], [ 37.010261536000087, -1.063974618999907 ], [ 37.011138917000153, -1.064208269999881 ], [ 37.011516572000062, -1.064330815999824 ], [ 37.012096405000136, -1.064586757999962 ], [ 37.012687682000148, -1.065020917999902 ], [ 37.01314163100011, -1.065321444999881 ], [ 37.013298035999981, -1.065510630999938 ], [ 37.013431549000131, -1.06585574199994 ], [ 37.013523101000033, -1.066390036999962 ], [ 37.013645172000111, -1.067080139999916 ], [ 37.013687134000065, -1.067458629999976 ], [ 37.013744354000153, -1.067725776999964 ], [ 37.013965607000102, -1.068048594999937 ], [ 37.014122009000062, -1.068204401999935 ], [ 37.014434814000083, -1.068438172999947 ], [ 37.015247345000091, -1.069039225999916 ], [ 37.015426636000086, -1.069183945999896 ], [ 37.015560149, -1.069417713999883 ], [ 37.015682220000087, -1.069651484999952 ], [ 37.015914916000156, -1.070519685999955 ], [ 37.015991212000074, -1.070675492999953 ], [ 37.016147614000033, -1.070942639999942 ], [ 37.016315460000101, -1.071076153999968 ], [ 37.016670226000144, -1.071187496999869 ], [ 37.017307281000171, -1.07119870199989 ], [ 37.017505645000085, -1.071165203999954 ], [ 37.017875670000194, -1.07125425299995 ], [ 37.018207551000046, -1.071454643999857 ], [ 37.018543244, -1.071599363999951 ], [ 37.018932342000085, -1.071677326999975 ], [ 37.01942062300003, -1.071699500999955 ], [ 37.019809723000094, -1.07176637699996 ], [ 37.019989014000089, -1.071899889999941 ], [ 37.020233153000163, -1.072155951999889 ], [ 37.020435333000194, -1.072456478999868 ], [ 37.020622254000102, -1.072779296999954 ], [ 37.02087020800019, -1.073191165999901 ], [ 37.021022797000114, -1.073358058999872 ], [ 37.021144866000157, -1.073591826999916 ], [ 37.021289825000167, -1.073892353999952 ], [ 37.021446228000059, -1.074204085999952 ], [ 37.02159118700007, -1.07449340699992 ], [ 37.021781921000013, -1.074738382999954 ], [ 37.021968842000149, -1.074905275999924 ], [ 37.022159576000092, -1.074994324999977 ], [ 37.02275085399998, -1.075083374999963 ], [ 37.023151398000095, -1.075038909999932 ], [ 37.023384094000164, -1.074949860999936 ], [ 37.023574830000143, -1.074782847999813 ], [ 37.023719787000118, -1.074638128999936 ], [ 37.023906708000084, -1.07452690599996 ], [ 37.024085999000079, -1.07449340699992 ], [ 37.024387360000048, -1.074549078999894 ], [ 37.024497986000142, -1.074660419999873 ], [ 37.024597168000184, -1.075005530999931 ], [ 37.02473068200004, -1.075205802999903 ], [ 37.024898529000154, -1.075606583999843 ], [ 37.025032043000181, -1.075806975999967 ], [ 37.025478364000094, -1.076074122999955 ], [ 37.025775910000164, -1.076207636999925 ], [ 37.026367188000052, -1.076374649999877 ], [ 37.027046203000054, -1.076541542999905 ], [ 37.027435303000061, -1.076697467999963 ], [ 37.027847290000125, -1.07680869099994 ], [ 37.028224945000034, -1.076908944999957 ], [ 37.028427125000064, -1.077009081999961 ], [ 37.028625489000149, -1.077276229999882 ], [ 37.028759003000175, -1.07766580599997 ], [ 37.028839111000082, -1.077932952999959 ], [ 37.029014587000177, -1.078244684999959 ], [ 37.02923965500014, -1.07841157799993 ], [ 37.03000640900018, -1.07870101899988 ], [ 37.030899048000038, -1.079001545999972 ], [ 37.031700133000186, -1.079279780999912 ], [ 37.032222748000152, -1.079502463999972 ], [ 37.032566071000076, -1.079814075999877 ], [ 37.032669068000132, -1.080170272999965 ], [ 37.032676696000067, -1.08076024099995 ], [ 37.03297805800014, -1.080971717999944 ], [ 37.033424377000188, -1.081305740999937 ], [ 37.034004211000024, -1.081762074999972 ], [ 37.034446717000037, -1.082062601999951 ], [ 37.034698486000025, -1.082248209999932 ], [ 37.034599304000153, -1.082366345999958 ], [ 37.033725738000157, -1.08346032999998 ], [ 37.033180237000067, -1.084024428999896 ], [ 37.030975342000147, -1.085956096999951 ], [ 37.024547578000181, -1.091220975999931 ], [ 37.013832093000019, -1.101391791999902 ], [ 37.013538360000155, -1.101733683999953 ], [ 37.013301849000072, -1.102126836999958 ], [ 37.012393951000092, -1.104126810999901 ], [ 37.01138687100007, -1.106314777999842 ], [ 37.008583070000157, -1.112776278999945 ], [ 37.008293151000032, -1.113340376999929 ], [ 37.008033752000188, -1.113733530999923 ], [ 37.007350922000171, -1.114246366999907 ], [ 37.000293731000056, -1.119853137999939 ], [ 36.998657227000024, -1.121604441999978 ], [ 36.997600555000133, -1.122408984999936 ], [ 36.99743271, -1.122522829999923 ], [ 36.997222900000054, -1.122598765999896 ], [ 36.996936799000139, -1.12271261199993 ], [ 36.996578217000092, -1.122769593999919 ], [ 36.996063233000143, -1.122826456999917 ], [ 36.995712279000031, -1.122838974999979 ], [ 36.995567322000056, -1.122400401999926 ], [ 36.995445252000081, -1.122179983999956 ], [ 36.995338439000193, -1.121950625999943 ], [ 36.994781493000119, -1.121342181999921 ], [ 36.994796754000049, -1.121146202999967 ], [ 36.994750977000081, -1.120985865999955 ], [ 36.994670868000128, -1.120756624999899 ], [ 36.994487762000063, -1.12043583499991 ], [ 36.994384765000177, -1.120195150999962 ], [ 36.994327544000157, -1.120000361999928 ], [ 36.994155884000122, -1.118843077999941 ], [ 36.994007112000077, -1.117204545999869 ], [ 36.994007112000077, -1.116402505999872 ], [ 36.993984223000041, -1.11594414699988 ], [ 36.993881226000155, -1.115199446999895 ], [ 36.993869781000171, -1.114889979999873 ], [ 36.993789674000027, -1.114592075999894 ], [ 36.993709565000074, -1.114328622999949 ], [ 36.993595123000034, -1.113984822999953 ], [ 36.993515014000081, -1.113652586999876 ], [ 36.993270875000178, -1.113343119999968 ], [ 36.992847442000084, -1.112896323999962 ], [ 36.992401124000082, -1.11255252299992 ], [ 36.991783142000088, -1.112071274999892 ], [ 36.991085052000074, -1.11142718799988 ], [ 36.990776063000169, -1.111090421999904 ], [ 36.990543365000121, -1.110855578999917 ], [ 36.990238190000184, -1.110528945999931 ], [ 36.990123750000123, -1.110345243999973 ], [ 36.990093231000174, -1.110192179999956 ], [ 36.989849090000121, -1.109885930999894 ], [ 36.989643097000055, -1.10946750599993 ], [ 36.98949051000011, -1.109130619999917 ], [ 36.98931884700005, -1.108814239999958 ], [ 36.988735200000178, -1.107946633999859 ], [ 36.988460541999984, -1.107640384999911 ], [ 36.988193512000123, -1.107283233999965 ], [ 36.987491607000038, -1.10638499199996 ], [ 36.987358093000182, -1.10626244599996 ], [ 36.987163544000168, -1.106140016999859 ], [ 36.986980438000103, -1.106109380999897 ], [ 36.986675263000166, -1.106078743999944 ], [ 36.986389160000044, -1.105976699999928 ], [ 36.98619461100003, -1.105823634999979 ], [ 36.986072540000123, -1.105670452999902 ], [ 36.98564147999997, -1.105139732999874 ], [ 36.985317230000135, -1.104578375999949 ], [ 36.985202789000027, -1.104353785999933 ], [ 36.98514175400004, -1.104139445999976 ], [ 36.985244751000096, -1.102659463999885 ], [ 36.985336303000054, -1.102251172999956 ], [ 36.985366822000174, -1.102026581999951 ], [ 36.985427857000161, -1.101822494999851 ], [ 36.985378265000122, -1.101465225999959 ], [ 36.985347748000038, -1.101281522999955 ], [ 36.985195159000114, -1.10092425299996 ], [ 36.985080719000052, -1.100679278999849 ], [ 36.985061645000087, -1.100444554999967 ], [ 36.984989167000094, -1.099842309999872 ], [ 36.984939575000112, -1.099627971999894 ], [ 36.984825134000118, -1.099393128999907 ], [ 36.984500884000113, -1.098862408999878 ], [ 36.984317780000083, -1.098576664999939 ], [ 36.984214783000141, -1.098392843999932 ], [ 36.98409271200012, -1.098178506999943 ], [ 36.984001160000162, -1.098035692999872 ], [ 36.983879090000187, -1.097678422999877 ], [ 36.983623505000082, -1.096912859999975 ], [ 36.983470916000158, -1.096514820999971 ], [ 36.98338699400017, -1.096116779999932 ], [ 36.983215331000054, -1.095310329999961 ], [ 36.983009339000091, -1.094555019999916 ], [ 36.982906342000149, -1.094187616999875 ], [ 36.982765198000038, -1.093952893999926 ], [ 36.982612610000047, -1.09375893999993 ], [ 36.982151031000114, -1.093146562999891 ], [ 36.981998444000169, -1.092891333999944 ], [ 36.981899262000127, -1.092707632999918 ], [ 36.98178482100019, -1.092472791999853 ], [ 36.981662751000044, -1.092064617999938 ], [ 36.981559753000056, -1.091717481999979 ], [ 36.981388093000021, -1.091268419999949 ], [ 36.981151582000109, -1.090829491999955 ], [ 36.980949402000078, -1.09047222099997 ], [ 36.980815888000052, -1.090237496999976 ], [ 36.980510712000182, -1.089665889999935 ], [ 36.980293274000132, -1.089369893999958 ], [ 36.980018616000166, -1.088839173999929 ], [ 36.979713440000126, -1.088338970999928 ], [ 36.979293823000148, -1.087675571999966 ], [ 36.979152678000105, -1.087440848999961 ], [ 36.978977203000056, -1.087083576999817 ], [ 36.97884368900003, -1.086705921999908 ], [ 36.978549957000041, -1.085950613999955 ], [ 36.978416444000118, -1.085613727999942 ], [ 36.978282928000056, -1.0853381149999 ], [ 36.978172302000132, -1.08505237199995 ], [ 36.978069305000076, -1.084807394999928 ], [ 36.977916718000131, -1.084491014999969 ], [ 36.977886199000181, -1.084297060999916 ], [ 36.977886199000181, -1.083419202999949 ], [ 36.977783204000104, -1.082990526999879 ], [ 36.977703095000152, -1.082643508999979 ], [ 36.977703095000152, -1.082388281999897 ], [ 36.977703095000152, -1.082214830999931 ], [ 36.977703095000152, -1.082000493999942 ], [ 36.977611541000044, -1.081816792999973 ], [ 36.977397919000111, -1.081745266999974 ], [ 36.977203369, -1.0817248809999 ], [ 36.97693634, -1.081806539999889 ], [ 36.976833344000056, -1.081918834999954 ], [ 36.976558684000054, -1.08202087899997 ], [ 36.976387024000076, -1.082000493999942 ], [ 36.976047515000118, -1.081877945999963 ], [ 36.975509643, -1.081714629999851 ], [ 36.974998474000074, -1.081561565999891 ], [ 36.974670411000034, -1.081469653999932 ], [ 36.974376679000102, -1.081336974999942 ], [ 36.974151611000082, -1.081214546999945 ], [ 36.974067688000162, -1.081051228999854 ], [ 36.973964690000173, -1.080885528999886 ], [ 36.973880768000186, -1.080675363999944 ], [ 36.973789215000124, -1.080387234999876 ], [ 36.973659516000168, -1.080207226999903 ], [ 36.973419190000186, -1.080039143999954 ], [ 36.97320938200005, -1.079937099999938 ], [ 36.972938537000118, -1.079829096999958 ], [ 36.972335816000054, -1.079668283999979 ], [ 36.972126007000043, -1.079574464999951 ], [ 36.97185516400009, -1.079461931999958 ], [ 36.971508025000048, -1.079377530999921 ], [ 36.97134781, -1.079321265999965 ], [ 36.971076965000066, -1.079227565999929 ], [ 36.970954894000045, -1.079152464999936 ], [ 36.970775603, -1.079030513999896 ], [ 36.970600128000171, -1.078917978999925 ], [ 36.970478057000093, -1.078852413999925 ], [ 36.970375062000187, -1.078730462999943 ], [ 36.970149994000053, -1.078599094999902 ], [ 36.969932556000174, -1.078458427999976 ], [ 36.969802857000161, -1.078270911999937 ], [ 36.96966171300005, -1.078130244999841 ], [ 36.969539643000076, -1.077961324999876 ], [ 36.969474792000142, -1.077764392999939 ], [ 36.969398499000135, -1.077642559999902 ], [ 36.969200134000118, -1.077417373999936 ], [ 36.969043732000159, -1.077267406999965 ], [ 36.968833922000044, -1.077182887999868 ], [ 36.968601226000146, -1.077136038999924 ], [ 36.968227386000137, -1.07709848899998 ], [ 36.967952728000114, -1.077051638999933 ], [ 36.967910766000045, -1.077040075999946 ], [ 36.967720032000045, -1.076985953999952 ], [ 36.967437744000165, -1.076873420999959 ], [ 36.967025757000101, -1.076770305999958 ], [ 36.966827393000187, -1.076695202999929 ], [ 36.966632844000173, -1.076620220999871 ], [ 36.966304779000097, -1.076517103999947 ], [ 36.966030121000131, -1.076460838999935 ], [ 36.965797425000062, -1.076423286999898 ], [ 36.965534210000044, -1.076404451999963 ], [ 36.965328216000046, -1.076404451999963 ], [ 36.965103150000061, -1.076348185999905 ], [ 36.964866639000149, -1.076235650999934 ], [ 36.964672089000032, -1.076104401999885 ], [ 36.964557647000163, -1.075991868999836 ], [ 36.964466095000034, -1.075766801999976 ], [ 36.964401244999976, -1.075663566999935 ], [ 36.964176179000049, -1.075438498999972 ], [ 36.963977814000032, -1.075185298999884 ], [ 36.96374130300012, -1.074950813999919 ], [ 36.963500977000137, -1.074716329999887 ], [ 36.963302613000053, -1.074519395999971 ], [ 36.963104249000139, -1.07431304399995 ], [ 36.962982178000118, -1.074238061999949 ], [ 36.962833404000037, -1.073994158999938 ], [ 36.962615966000158, -1.073712824999916 ], [ 36.962402343000178, -1.073553322999942 ], [ 36.962234498000043, -1.073431491999884 ], [ 36.962062835000154, -1.073318956999913 ], [ 36.96186828600014, -1.073197005999873 ], [ 36.961643220000155, -1.073093770999947 ], [ 36.961463929000161, -1.073009371999888 ], [ 36.961341858000083, -1.072953104999954 ], [ 36.960338592000028, -1.072859405999907 ], [ 36.960113526000043, -1.072709320999934 ], [ 36.959880828000166, -1.072587369999951 ], [ 36.959625243000062, -1.072446703999958 ], [ 36.959373474000131, -1.072409151999977 ], [ 36.959205628000063, -1.072315334999928 ], [ 36.958770753000067, -1.072080968999899 ], [ 36.958660126000041, -1.071930884999915 ], [ 36.958396911000023, -1.071686982999893 ], [ 36.958236693000117, -1.0715744499999 ], [ 36.958042144000103, -1.071339963999947 ], [ 36.957889557000158, -1.071077346999971 ], [ 36.957817078000119, -1.070917963999932 ], [ 36.957611084000121, -1.070533393999938 ], [ 36.957401275999985, -1.070242642999915 ], [ 36.957244874000025, -1.069998860999931 ], [ 36.957130431000053, -1.069773792999968 ], [ 36.957027436000146, -1.069558022999956 ], [ 36.956962586000145, -1.069426774999954 ], [ 36.956905366000171, -1.069267271999877 ], [ 36.956886292000036, -1.069070337999847 ], [ 36.956821442000148, -1.068873405999966 ], [ 36.95677566500018, -1.068760870999881 ], [ 36.956672668000124, -1.068620203999899 ], [ 36.956596374000185, -1.068507670999907 ], [ 36.956550599000025, -1.068094968999958 ], [ 36.956615447000104, -1.067822931999842 ], [ 36.956661224000072, -1.067682264999917 ], [ 36.956726075000176, -1.067419647999941 ], [ 36.956802368000183, -1.067147732999842 ], [ 36.956550599000025, -1.067082046999928 ], [ 36.956211091, -1.067157030999965 ], [ 36.955959319000158, -1.067363380999893 ], [ 36.955657960000167, -1.067457199999865 ], [ 36.955375671000184, -1.067522882999867 ], [ 36.955150604000096, -1.067513464999877 ], [ 36.954925538000168, -1.067466614999944 ], [ 36.954814910000039, -1.067307114999949 ], [ 36.954681396000183, -1.06721329599992 ], [ 36.954364777000194, -1.067232131999958 ], [ 36.953903198000091, -1.067307114999949 ], [ 36.953567504000034, -1.06731653099996 ], [ 36.953296662000184, -1.067288398999949 ], [ 36.952957153000114, -1.067175863999921 ], [ 36.952533721000066, -1.066931962999945 ], [ 36.95232009800003, -1.066781877999858 ], [ 36.952037810000149, -1.066566227999942 ], [ 36.951824188000046, -1.066341161999958 ], [ 36.951484679000089, -1.066106676999937 ], [ 36.951305389000026, -1.065919039999869 ], [ 36.951156616000048, -1.065684676999922 ], [ 36.950988769000105, -1.065440772999978 ], [ 36.950771331000055, -1.065131305999955 ], [ 36.950500488000102, -1.064821718999951 ], [ 36.950332642000092, -1.06467175399996 ], [ 36.950199127000133, -1.064484117999882 ], [ 36.950057983000193, -1.064362166999842 ], [ 36.949871064000092, -1.064249633999964 ], [ 36.949703216000046, -1.064118385999905 ], [ 36.949523925000051, -1.06393074999994 ], [ 36.94935607900004, -1.063733814999978 ], [ 36.949234009000065, -1.063583730999937 ], [ 36.949104310000052, -1.063414930999897 ], [ 36.94898986700008, -1.063236711999878 ], [ 36.948867799000141, -1.06297421499994 ], [ 36.948841095000034, -1.06279599599992 ], [ 36.948745728000063, -1.062627195999823 ], [ 36.948513030000186, -1.062458275999973 ], [ 36.948165894000056, -1.062280176999877 ], [ 36.947967529000096, -1.062186359999941 ], [ 36.947715760000108, -1.062158226999941 ], [ 36.947490692000144, -1.062186359999941 ], [ 36.947208404000037, -1.062054991999901 ], [ 36.94690704400017, -1.061961291999978 ], [ 36.946693420000088, -1.061848758999872 ], [ 36.94652557400002, -1.061754941999936 ], [ 36.946269990000019, -1.06158614199984 ], [ 36.946147919000168, -1.061445474999914 ], [ 36.94594192500017, -1.061323522999942 ], [ 36.94575500600007, -1.061276554999893 ], [ 36.945434571000078, -1.061192153999912 ], [ 36.945201875, -1.061070322999967 ], [ 36.944984437000187, -1.060957789999975 ], [ 36.944778442000086, -1.060873268999899 ], [ 36.944610595000142, -1.060779571999888 ], [ 36.944507600000065, -1.060498118999874 ], [ 36.944412231000058, -1.06019806899991 ], [ 36.944385529000158, -1.059970378999822 ], [ 36.944377899000074, -1.059935449999955 ], [ 36.944347382000103, -1.059766649999915 ], [ 36.944225311000082, -1.05950403199995 ], [ 36.944076537000171, -1.0593446499999 ], [ 36.943832398000154, -1.059278963999873 ], [ 36.943626404000156, -1.05920386299988 ], [ 36.943504333000078, -1.05913829799988 ], [ 36.943473816000164, -1.058960078999974 ], [ 36.943473816000164, -1.058697461999941 ], [ 36.943439484000123, -1.058453559999975 ] ] ] ] } }
]
}
